ONEWEB-0094             
1 45450U 20020AC  24173.93909626  .00000060  00000+0  12049-3 0  9997
2 45450  87.9169 150.2171 0002216  88.5690 271.5696 13.17518243210806
ONEWEB-0087             
1 45451U 20020AD  24173.90676148  .00000111  00000+0  27639-3 0  9993
2 45451  87.8953 165.3591 0002249  93.7058 266.4327 13.11414576207529
ONEWEB-0082             
1 45452U 20020AE  24173.90350977  .00000241  00000+0  64518-3 0  9994
2 45452  87.8959 165.3630 0002066  85.2408 274.8955 13.11415494207612
ONEWEB-0050             
1 45453U 20020AF  24173.62966979  .00002692  00000+0  27820-3 0  9996
2 45453  88.0021  27.0197 0005482  79.0589 281.1256 14.89787893232281
ONEWEB-0034             
1 45454U 20020AG  24173.92553108 -.00000513  00000+0 -14843-2 0  9998
2 45454  87.8961 165.3775 0002105  87.8259 272.3110 13.11414904207535
ONEWEB-0060             
1 45455U 20020AH  24174.00001157 -.00006329  00000+0 -18048-1 0  9992
2 45455  87.8956 165.3784 0001917  93.2740  61.7855 13.10875127  5221
ONEWEB-0086             
1 45456U 20020AJ  24173.95098368  .00000185  00000+0  48552-3 0  9993
2 45456  87.8962 165.3737 0002465  92.8286 267.3124 13.11418616207556
ONEWEB-0088             
1 45457U 20020AK  24173.92892889 -.00000472  00000+0 -13677-2 0  9991
2 45457  87.8957 165.3430 0002101  90.5002 269.6366 13.11415360207487
